HORUS 2                 
1 55844U 23032A   26166.15231499  .00005586  00000+0  23762-3 0  9997
2 55844  97.3540 241.5936 0002255 107.5292 252.6191 15.23408722181174
GLOBAL-19               
1 55982U 23041B   26165.82575905  .00011033  00000+0  29501-3 0  9997
2 55982  42.0000 215.6569 0009211 346.7815  13.2782 15.37979148181566
BRO-9                   
1 56185U 23054H   26166.14172228  .00764026  29012-3  12019-2 0  9994
2 56185  97.2925  84.5036 0007684 163.4983 196.6550 16.03927918178763
ION SCV-010             
1 56192U 23054Q   26166.12744995  .00004204  00000+0  16515-3 0  9999
2 56192  97.3786  55.6554 0011960 204.7202 155.3465 15.26182163175882
TELEOS-2                
1 56310U 23057C   26165.75668281  .00000688  00000+0  33675-7 0  9997
2 56310   9.9878 221.8949 0000658 347.7625  12.2573 14.96393393172433
SNIPE 4                 
1 56744U 23072B   26166.20269128  .00019959  00000+0  46514-3 0  9996
2 56744  97.5245  12.1453 0004536 347.0699  13.0431 15.42285407169806
SNIPE 2                 
1 56745U 23072C   26166.18658538  .00023157  00000+0  46338-3 0  9990
2 56745  97.5240  15.1587 0004377  21.4857 338.6576 15.46767351169932
2023-072G               
1 56749U 23072G   26166.19183984  .00028768  00000+0  50527-3 0  9991
2 56749  97.4900  13.9651 0003022  16.1249 344.0098 15.50479267170155
GEISAT PRECURSOR        
1 56934U 23084C   26166.19756041  .00006014  00000+0  18172-3 0  9990
2 56934  97.6220 307.0847 0005127   5.6832 354.4467 15.34626761167225
BLACKJACK ACES-3        
1 56950U 23084U   26166.12729959  .00005264  00000+0  25893-3 0  9993
2 56950  97.6210 301.3020 0002732  42.2819 317.8625 15.18453260166854
BLACKJACK ACES-2        
1 56955U 23084Z   26166.13349138  .00006300  00000+0  30860-3 0  9998
2 56955  97.6206 301.3930 0001095  71.7864 288.3488 15.18522694166860
BLACKJACK ACES-1        
1 56956U 23084AA  26166.12149326  .00006748  00000+0  32971-3 0  9996
2 56956  97.6198 301.1549 0001236 102.1746 257.9626 15.18582823116580
ION SCV-011             
1 56957U 23084AB  26166.10277998  .00004521  00000+0  16442-3 0  9994
2 56957  98.1372 353.1889 0008125  52.0596 308.1375 15.28828624165492
GHOST-3                 
1 56958U 23084AC  26166.15941836  .00014095  00000+0  27301-3 0  9992
2 56958  97.6209 314.6222 0005536 302.5088  57.5626 15.47820941167706
TOMORROW-R2             
1 56962U 23084AG  26165.99036891  .00491444  11799-3  66291-3 0  9993
2 56962  97.6052 329.9053 0008307 243.3663 116.6768 16.06409640168708
AFR-1                   
1 56964U 23084AJ  26166.13749975  .00004134  00000+0  15154-3 0  9993
2 56964  97.6272 302.7787 0010127 354.5036   5.6091 15.28540533166916
METEOR-M2 3             
1 57166U 23091A   26166.20138937  .00000003  00000+0  20243-4 0  9991
2 57166  98.6090 221.2203 0004251 160.5973 199.5369 14.24046652154235
UMKA 1 (RS40S)          
1 57172U 23091G   26166.18581987  .00005482  00000+0  25121-3 0  9997
2 57172  97.5054 224.8905 0014181 123.8643 236.3944 15.20797606163707
2023-091H               
1 57173U 23091H   26166.15368854  .00009136  00000+0  33048-3 0  9998
2 57173  97.5053 229.3289 0011268 119.1886 241.0482 15.28598727163994
2023-091J               
1 57174U 23091J   26166.20552336  .00003087  00000+0  17374-3 0  9998
2 57174  97.5057 219.3302 0014184 149.1910 211.0157 15.13915401163335
CUBEBEL 2 (EU11S)       
1 57175U 23091K   26166.15523997  .00010151  00000+0  36121-3 0  9995
2 57175  97.5057 229.3536 0011279 120.7635 239.4717 15.29108506163992
SITRO-AIS 5 (KATYS)     
1 57176U 23091L   26166.17264353  .00010074  00000+0  35492-3 0  9990
2 57176  97.5066 230.0526 0012802 109.7201 250.5421 15.29417627164039
ZORKIY-2M 1             
1 57177U 23091M   26166.17232194  .00006317  00000+0  28821-3 0  9992
2 57177  97.5094 225.1436 0014740 121.4963 238.7714 15.20880869163692
CUBESX-HSE 3 (RS42S)    
1 57178U 23091N   26166.14797420  .00012942  00000+0  43122-3 0  9990
2 57178  97.5097 231.7092 0012072 100.9791 259.2809 15.31173051164115
MONITOR-3 (RS58S)       
1 57180U 23091Q   26166.16797073  .00008606  00000+0  31886-3 0  9995
2 57180  97.5089 229.5989 0013141 106.9810 253.2870 15.27807648163982
MONITOR-4 (RS57S)       
1 57182U 23091S   26166.14713968  .00009472  00000+0  34970-3 0  9995
2 57182  97.5082 229.5490 0013116 107.4228 252.8446 15.27893678163987
MONITOR-2 (RS39S)       
1 57184U 23091U   26166.20456375  .00004124  00000+0  20062-3 0  9996
2 57184  97.5076 224.5001 0012668 117.1032 243.1496 15.18894136163659
SVYATOBOR 1 (RS60S)     
1 57187U 23091X   26166.15848455  .00007444  00000+0  28680-3 0  9999
2 57187  97.5094 229.9641 0010899 100.4601 259.7866 15.26585545164006
HORS 1                  
1 57188U 23091Y   26166.20970867  .00008295  00000+0  31828-3 0  9992
2 57188  97.5072 229.7782 0010368 100.1327 260.1081 15.26692100164012
VIZARD-METEO (RS38S)    
1 57189U 23091Z   26166.19322891  .00014087  00000+0  40392-3 0  9991
2 57189  97.5098 235.6379 0008387  83.5492 276.6707 15.35971622164380
