OBJECT_NAME,OBJECT_ID,EPOCH,MEAN_MOTION,ECCENTRICITY,INCLINATION,RA_OF_ASC_NODE,ARG_OF_PERICENTER,MEAN_ANOMALY,EPHEMERIS_TYPE,CLASSIFICATION_TYPE,NORAD_CAT_ID,ELEMENT_SET_NO,REV_AT_EPOCH,BSTAR,MEAN_MOTION_DOT,MEAN_MOTION_DDOT
HORUS 2,2023-032A,2026-06-15T03:39:20.015136,15.23408722,.0002255,97.3540,241.5936,107.5292,252.6191,0,U,55844,999,18117,.23762E-3,.5586E-4,0
GLOBAL-19,2023-041B,2026-06-14T19:49:05.581920,15.37979148,.00092116,42.0000,215.6569,346.7815,13.2782,0,U,55982,999,18156,.29500612E-3,.11033E-3,0
BRO-9,2023-054H,2026-06-15T03:24:04.804992,16.03927918,.0007684,97.2925,84.5036,163.4983,196.6550,0,U,56185,999,17876,.12019E-2,.764026E-2,.29012E-3
ION SCV-010,2023-054Q,2026-06-15T03:03:31.675680,15.26182163,.001196,97.3786,55.6554,204.7202,155.3465,0,U,56192,999,17588,.16515E-3,.4204E-4,0
TELEOS-2,2023-057C,2026-06-14T18:09:37.394784,14.96393393,.00006581,9.9878,221.8949,347.7625,12.2573,0,U,56310,999,17243,.33675E-7,.688E-5,0
SNIPE 4,2023-072B,2026-06-15T04:51:52.526592,15.42285407,.0004536,97.5245,12.1453,347.0699,13.0431,0,U,56744,999,16980,.46514E-3,.19959E-3,0
SNIPE 2,2023-072C,2026-06-15T04:28:40.976832,15.46767351,.0004377,97.5240,15.1587,21.4857,338.6576,0,U,56745,999,16993,.46338E-3,.23157E-3,0
2023-072G,2023-072G,2026-06-15T04:36:14.962176,15.50479267,.0003022,97.4900,13.9651,16.1249,344.0098,0,U,56749,999,17015,.50527E-3,.28768E-3,0
GEISAT PRECURSOR,2023-084C,2026-06-15T04:44:29.219424,15.34626761,.0005127,97.6220,307.0847,5.6832,354.4467,0,U,56934,999,16722,.18172E-3,.6014E-4,0
BLACKJACK ACES-3,2023-084U,2026-06-15T03:03:18.684576,15.18453260,.0002732,97.6210,301.3020,42.2819,317.8625,0,U,56950,999,16685,.25893E-3,.5264E-4,0
BLACKJACK ACES-2,2023-084Z,2026-06-15T03:12:13.655232,15.18522694,.0001095,97.6206,301.3930,71.7864,288.3488,0,U,56955,999,16686,.3086E-3,.63E-4,0
BLACKJACK ACES-1,2023-084AA,2026-06-15T02:54:57.017664,15.18582823,.0001236,97.6198,301.1549,102.1746,257.9626,0,U,56956,999,11658,.32971E-3,.6748E-4,0
ION SCV-011,2023-084AB,2026-06-15T02:28:00.190272,15.28828624,.0008125,98.1372,353.1889,52.0596,308.1375,0,U,56957,999,16549,.16442E-3,.4521E-4,0
GHOST-3,2023-084AC,2026-06-15T03:49:33.746304,15.47820941,.0005536,97.6209,314.6222,302.5088,57.5626,0,U,56958,999,16770,.27301E-3,.14095E-3,0
TOMORROW-R2,2023-084AG,2026-06-14T23:46:07.873824,16.06409640,.0008307,97.6052,329.9053,243.3663,116.6768,0,U,56962,999,16870,.66291E-3,.491444E-2,.11799E-3
AFR-1,2023-084AJ,2026-06-15T03:17:59.978400,15.28540533,.0010127,97.6272,302.7787,354.5036,5.6091,0,U,56964,999,16691,.15154E-3,.4134E-4,0
METEOR-M2 3,2023-091A,2026-06-15T04:50:00.041568,14.24046652,.0004251,98.6090,221.2203,160.5973,199.5369,0,U,57166,999,15423,.20243E-4,.3E-7,0
UMKA 1 (RS40S),2023-091G,2026-06-15T04:27:34.836768,15.20797606,.0014181,97.5054,224.8905,123.8643,236.3944,0,U,57172,999,16370,.25121E-3,.5482E-4,0
2023-091H,2023-091H,2026-06-15T03:41:18.689856,15.28598727,.0011268,97.5053,229.3289,119.1886,241.0482,0,U,57173,999,16399,.33048E-3,.9136E-4,0
2023-091J,2023-091J,2026-06-15T04:55:57.218304,15.13915401,.0014184,97.5057,219.3302,149.1910,211.0157,0,U,57174,999,16333,.17374E-3,.3087E-4,0
CUBEBEL 2 (EU11S),2023-091K,2026-06-15T03:43:32.733408,15.29108506,.0011279,97.5057,229.3536,120.7635,239.4717,0,U,57175,999,16399,.36121E-3,.10151E-3,0
SITRO-AIS 5 (KATYS),2023-091L,2026-06-15T04:08:36.400992,15.29417627,.0012802,97.5066,230.0526,109.7201,250.5421,0,U,57176,999,16403,.35492E-3,.10074E-3,0
ZORKIY-2M 1,2023-091M,2026-06-15T04:08:08.615616,15.20880869,.001474,97.5094,225.1436,121.4963,238.7714,0,U,57177,999,16369,.28821E-3,.6317E-4,0
CUBESX-HSE 3 (RS42S),2023-091N,2026-06-15T03:33:04.970880,15.31173051,.0012072,97.5097,231.7092,100.9791,259.2809,0,U,57178,999,16411,.43122E-3,.12942E-3,0
MONITOR-3 (RS58S),2023-091Q,2026-06-15T04:01:52.671072,15.27807648,.0013141,97.5089,229.5989,106.9810,253.2870,0,U,57180,999,16398,.31886E-3,.8606E-4,0
MONITOR-4 (RS57S),2023-091S,2026-06-15T03:31:52.868352,15.27893678,.0013116,97.5082,229.5490,107.4228,252.8446,0,U,57182,999,16398,.3497E-3,.9472E-4,0
MONITOR-2 (RS39S),2023-091U,2026-06-15T04:54:34.308000,15.18894136,.0012668,97.5076,224.5001,117.1032,243.1496,0,U,57184,999,16365,.20062E-3,.4124E-4,0
SVYATOBOR 1 (RS60S),2023-091X,2026-06-15T03:48:13.065120,15.26585545,.0010899,97.5094,229.9641,100.4601,259.7866,0,U,57187,999,16400,.2868E-3,.7444E-4,0
HORS 1,2023-091Y,2026-06-15T05:01:58.829088,15.26692100,.0010368,97.5072,229.7782,100.1327,260.1081,0,U,57188,999,16401,.31828E-3,.8295E-4,0
VIZARD-METEO (RS38S),2023-091Z,2026-06-15T04:38:14.977824,15.35971622,.0008387,97.5098,235.6379,83.5492,276.6707,0,U,57189,999,16438,.40392E-3,.14087E-3,0
